NORAD_CAT_ID,OBJECT_NAME,OBJECT_TYPE,EPOCH,MEAN_MOTION,ECCENTRICITY,INCLINATION,RA_OF_ASC_NODE,ARG_OF_PERICENTER,MEAN_ANOMALY,BSTAR,MEAN_MOTION_DOT,MEAN_MOTION_DDOT,TLE_LINE0,TLE_LINE1,TLE_LINE2,SEMIMAJOR_AXIS,PERIOD,APOGEE,PERIGEE,DECAYED
50840.0,STARLINK-3295,PAYLOAD,2024-06-10 09:12:57,15.08841923,0.0001349,53.2164,160.0982,85.4183,274.6963,6.3887e-05,7.29e-06,0.0,0 STARLINK-3295,1 50840U 22001AP  24162.38399823  .00000729  00000-0  63887-4 0  9996,2 50840  53.2164 160.0982 0001349  85.4183 274.6963 15.08841923134042,6917.875,95.437,540.673,538.806,0.0
50840.0,STARLINK-3295,PAYLOAD,2024-06-10 17:09:53,15.0884245,0.0001358,53.2165,158.6113,85.4633,274.6514,7.2904e-05,8.73e-06,0.0,0 STARLINK-3295,1 50840U 22001AP  24162.71519737  .00000873  00000-0  72904-4 0  9991,2 50840  53.2165 158.6113 0001358  85.4633 274.6514 15.08842450134095,6917.873,95.437,540.677,538.798,0.0
50840.0,STARLINK-3295,PAYLOAD,2024-06-11 09:03:44,15.08845588,0.0001323,53.2162,155.6371,87.0795,273.0349,0.00013101,1.798e-05,0.0,0 STARLINK-3295,1 50840U 22001AP  24163.37759319  .00001798  00000-0  13101-3 0  9996,2 50840  53.2162 155.6371 0001323  87.0795 273.0349 15.08845588134199,6917.863,95.437,540.644,538.813,0.0
50840.0,STARLINK-3295,PAYLOAD,2024-06-12 05:43:45,15.08830961,0.0001379,53.2163,151.77,94.7857,265.3293,9.0055e-05,1.145e-05,0.0,0 STARLINK-3295,1 50840U 22001AP  24164.23872417  .00001145  00000-0  90055-4 0  9997,2 50840  53.2163 151.7700 0001379  94.7857 265.3293 15.08830961135617,6917.908,95.438,540.727,538.819,0.0
50840.0,STARLINK-3295,PAYLOAD,2024-06-13 05:34:32,15.0884008,0.000153,53.2172,147.308,103.4415,256.6748,4.872e-06,-2.1e-06,0.0,0 STARLINK-3295,1 50840U 22001AP  24165.23231908 -.00000210  00000-0  48720-5 0  9998,2 50840  53.2172 147.3080 0001530 103.4415 256.6748 15.08840080135763,6917.88,95.438,540.804,538.687,0.0
50840.0,STARLINK-3295,PAYLOAD,2024-06-13 08:45:18,15.08839791,0.0001526,53.2172,146.7135,103.0149,257.1013,2.1755e-06,-2.53e-06,0.0,0 STARLINK-3295,1 50840U 22001AP  24165.36479935 -.00000253  00000-0  21755-5 0  9992,2 50840  53.2172 146.7135 0001526 103.0149 257.1013 15.08839791134499,6917.881,95.438,540.802,538.69,0.0
50840.0,STARLINK-3295,PAYLOAD,2024-06-14 05:25:19,15.08835382,0.0001338,53.2166,142.8519,92.2022,267.9123,5.4958e-05,5.87e-06,0.0,0 STARLINK-3295,1 50840U 22001AP  24166.22592252  .00000587  00000-0  54958-4 0  9995,2 50840  53.2166 142.8519 0001338  92.2022 267.9123 15.08835382134623,6917.895,95.438,540.685,538.834,0.0
50840.0,STARLINK-3295,PAYLOAD,2024-06-14 22:54:34,15.08839639,0.0001315,53.2163,139.5785,82.4364,277.6777,3.1232e-05,2.09e-06,0.0,0 STARLINK-3295,1 50840U 22001AP  24166.95456179  .00000209  00000-0  31232-4 0  9993,2 50840  53.2163 139.5785 0001315  82.4364 277.6777 15.08839639134737,6917.881,95.438,540.656,538.837,0.0
50840.0,STARLINK-3295,PAYLOAD,2024-06-15 14:48:25,15.08841556,0.0001315,53.2167,136.6066,87.5907,272.5236,4.1421e-05,3.71e-06,0.0,0 STARLINK-3295,1 50840U 22001AP  24167.61695950  .00000371  00000-0  41421-4 0  9990,2 50840  53.2167 136.6066 0001315  87.5907 272.5236 15.08841556134836,6917.876,95.437,540.65,538.831,0.0
50840.0,STARLINK-3295,PAYLOAD,2024-06-16 08:17:40,15.08838156,0.0001411,53.2168,133.3363,90.3137,269.8017,3.5821e-05,2.82e-06,0.0,0 STARLINK-3295,1 50840U 22001AP  24168.34560401  .00000282  00000-0  35821-4 0  9991,2 50840  53.2168 133.3363 0001411  90.3137 269.8017 15.08838156134945,6917.886,95.438,540.727,538.775,0.0
50840.0,STARLINK-3295,PAYLOAD,2024-06-17 14:29:59,15.08844702,0.0001371,53.2164,127.6859,90.1172,269.9978,5.4585e-05,5.81e-06,0.0,0 STARLINK-3295,1 50840U 22001AP  24169.60416070  .00000581  00000-0  54585-4 0  9993,2 50840  53.2164 127.6859 0001371  90.1172 269.9978 15.08844702136425,6917.866,95.437,540.679,538.783,0.0
50840.0,STARLINK-3295,PAYLOAD,2024-06-18 04:48:26,15.08861674,0.0001479,53.2166,125.0095,85.8767,274.2395,0.00021882,3.198e-05,0.0,0 STARLINK-3295,1 50840U 22001AP  24170.20030176  .00003198  00000-0  21882-3 0  9990,2 50840  53.2166 125.0095 0001479  85.8767 274.2395 15.08861674136510,6917.814,95.436,540.702,538.656,0.0
50840.0,STARLINK-3295,PAYLOAD,2024-06-18 14:20:46,15.0884042,0.0001572,53.2165,123.2252,86.9174,273.1998,4.3489e-05,4.04e-06,0.0,0 STARLINK-3295,1 50840U 22001AP  24170.59775832  .00000404  00000-0  43489-4 0  9992,2 50840  53.2165 123.2252 0001572  86.9174 273.1998 15.08840420135288,6917.879,95.438,540.832,538.657,0.0
50840.0,STARLINK-3295,PAYLOAD,2024-06-18 20:42:19,15.0883473,0.0001641,53.216,122.0363,89.5728,270.5453,5.129e-05,5.28e-06,0.0,0 STARLINK-3295,1 50840U 22001AP  24170.86272263  .00000528  00000-0  51290-4 0  9998,2 50840  53.2160 122.0363 0001641  89.5728 270.5453 15.08834730136616,6917.896,95.438,540.897,538.626,0.0
50840.0,STARLINK-3295,PAYLOAD,2024-06-19 03:03:52,15.08829546,0.0001294,53.2172,120.8453,95.6771,264.4369,-5.8973e-05,-1.226e-05,0.0,0 STARLINK-3295,1 50840U 22001AP  24171.12769001 -.00001226  00000-0 -58973-4 0  9992,2 50840  53.2172 120.8453 0001294  95.6771 264.4369 15.08829546136656,6917.912,95.438,540.673,538.882,0.0
50840.0,STARLINK-3295,PAYLOAD,2024-06-19 14:11:34,15.08830382,0.0001393,53.2176,118.7634,102.0254,258.0894,-8.9045e-05,-1.704e-05,0.0,0 STARLINK-3295,1 50840U 22001AP  24171.59137208 -.00001704  00000-0 -89045-4 0  9996,2 50840  53.2176 118.7634 0001393 102.0254 258.0894 15.08830382135433,6917.91,95.438,540.738,538.811,0.0
50840.0,STARLINK-3295,PAYLOAD,2024-06-19 20:33:06,15.08839352,0.0001334,53.2165,117.5739,95.9855,264.1289,-0.00014565,-2.605e-05,0.0,0 STARLINK-3295,1 50840U 22001AP  24171.85632822 -.00002605  00000-0 -14565-3 0  9992,2 50840  53.2165 117.5739 0001334  95.9855 264.1289 15.08839352136765,6917.882,95.438,540.67,538.825,0.0
50840.0,STARLINK-3295,PAYLOAD,2024-06-20 02:54:39,15.0884116,0.0001229,53.2171,116.3857,94.4836,265.6296,-0.00010372,-1.938e-05,0.0,0 STARLINK-3295,1 50840U 22001AP  24172.12128554 -.00001938  00000-0 -10372-3 0  9995,2 50840  53.2171 116.3857 0001229  94.4836 265.6296 15.08841160135512,6917.877,95.437,540.592,538.892,0.0
50840.0,STARLINK-3295,PAYLOAD,2024-06-20 20:23:54,15.08825141,0.0001179,53.2167,113.1147,96.6407,263.472,0.00011922,1.609e-05,0.0,0 STARLINK-3295,1 50840U 22001AP  24172.84993122  .00001609  00000-0  11922-3 0  9990,2 50840  53.2167 113.1147 0001179  96.6407 263.4720 15.08825141135627,6917.926,95.438,540.606,538.975,0.0
50840.0,STARLINK-3295,PAYLOAD,2024-06-20 23:34:40,15.08826706,0.0001176,53.2167,112.52,96.382,263.7306,0.00012927,1.769e-05,0.0,0 STARLINK-3295,1 50840U 22001AP  24172.98241135  .00001769  00000-0  12927-3 0  9998,2 50840  53.2167 112.5200 0001176  96.3820 263.7306 15.08826706136939,6917.921,95.438,540.6,538.972,0.0
50840.0,STARLINK-3295,PAYLOAD,2024-06-21 05:56:12,15.08831676,0.0001151,53.2165,111.3312,91.6855,268.4269,0.00013896,1.924e-05,0.0,0 STARLINK-3295,1 50840U 22001AP  24173.24737091  .00001924  00000-0  13896-3 0  9998,2 50840  53.2165 111.3312 0001151  91.6855 268.4269 15.08831676135680,6917.906,95.438,540.567,538.975,0.0
50840.0,STARLINK-3295,PAYLOAD,2024-06-22 02:36:12,15.08848544,0.0001219,53.2171,107.466,91.4181,268.6951,0.00019325,2.79e-05,0.0,0 STARLINK-3295,1 50840U 22001AP  24174.10848184  .00002790  00000-0  19325-3 0  9995,2 50840  53.2171 107.4660 0001219  91.4181 268.6951 15.08848544137105,6917.854,95.437,540.563,538.876,0.0
50840.0,STARLINK-3295,PAYLOAD,2024-06-22 05:46:58,15.08852623,0.0001203,53.2167,106.8701,92.097,268.016,0.00021988,3.214e-05,0.0,0 STARLINK-3295,1 50840U 22001AP  24174.24095828  .00003214  00000-0  21988-3 0  9999,2 50840  53.2167 106.8701 0001203  92.0970 268.0160 15.08852623135832,6917.842,95.437,540.539,538.875,0.0
50840.0,STARLINK-3295,PAYLOAD,2024-06-24 03:53:10,15.0885539,0.0001413,53.2179,98.2385,116.2575,243.8562,-8.2156e-05,-1.596e-05,0.0,0 STARLINK-3295,1 50840U 22001AP  24176.16192430 -.00001596  00000-0 -82156-4 0  9997,2 50840  53.2179  98.2385 0001413 116.2575 243.8562 15.08855390137417,6917.833,95.437,540.676,538.721,0.0
50840.0,STARLINK-3295,PAYLOAD,2024-06-24 05:28:33,15.08852293,0.0001451,53.218,97.9458,118.7722,241.3416,-2.3309e-05,-6.59e-06,0.0,0 STARLINK-3295,1 50840U 22001AP  24176.22816475 -.00000659  00000-0 -23309-4 0  9990,2 50840  53.2180  97.9458 0001451 118.7722 241.3416 15.08852293136137,6917.843,95.437,540.712,538.704,0.0
50840.0,STARLINK-3295,PAYLOAD,2024-06-25 02:08:34,15.0883916,0.0001312,53.2177,94.0791,83.327,276.7872,0.00011037,1.469e-05,0.0,0 STARLINK-3295,1 50840U 22001AP  24177.08929355  .00001469  00000-0  11037-3 0  9999,2 50840  53.2177  94.0791 0001312  83.3270 276.7872 15.08839160137555,6917.883,95.438,540.656,538.84,0.0
50840.0,STARLINK-3295,PAYLOAD,2024-06-25 22:48:35,15.08843218,0.0001624,53.2185,90.215,65.2521,294.864,5.9267e-05,6.55e-06,0.0,0 STARLINK-3295,1 50840U 22001AP  24177.95041573  .00000655  00000-0  59267-4 0  9996,2 50840  53.2185  90.2150 0001624  65.2521 294.8640 15.08843218136399,6917.871,95.437,540.859,538.612,0.0
50840.0,STARLINK-3295,PAYLOAD,2024-06-26 00:23:58,15.0884463,0.0001407,53.2184,89.9204,76.3229,283.7919,3.9712e-05,3.44e-06,0.0,0 STARLINK-3295,1 50840U 22001AP  24178.01665492  .00000344  00000-0  39712-4 0  9994,2 50840  53.2184  89.9204 0001407  76.3229 283.7919 15.08844630136407,6917.866,95.437,540.705,538.758,0.0
50840.0,STARLINK-3295,PAYLOAD,2024-06-26 22:39:22,15.08844403,0.0001583,53.218,85.7602,73.2333,286.8832,8.2716e-05,1.029e-05,0.0,0 STARLINK-3295,1 50840U 22001AP  24178.94401467  .00001029  00000-0  82716-4 0  9999,2 50840  53.2180  85.7602 0001583  73.2333 286.8832 15.08844403136547,6917.867,95.437,540.827,538.637,0.0
50840.0,STARLINK-3295,PAYLOAD,2024-06-27 00:14:45,15.08844936,0.0001533,53.2176,85.4631,74.9264,285.1898,8.4211e-05,1.053e-05,0.0,0 STARLINK-3295,1 50840U 22001AP  24179.01025385  .00001053  00000-0  84211-4 0  9998,2 50840  53.2176  85.4631 0001533  74.9264 285.1898 15.08844936137846,6917.865,95.437,540.791,538.67,0.0
